{
  "norad_id": 67786,
  "name": "KUIPER-00259",
  "history": [
    {
      "epoch": "2026-03-28T12:27:39.026880Z",
      "apogee_km": 465.2735780567873,
      "perigee_km": 453.5690457384817,
      "latitude_deg": 4.803333582422453e-05,
      "longitude_deg": 115.6735411525843,
      "height_km": 461.76136700634,
      "semi_major_axis_km": 6837.558311897635,
      "eccentricity": 0.0008559,
      "inclination_deg": 51.8825,
      "raan_deg": 128.5246,
      "arg_perigee_deg": 105.7767,
      "mean_anomaly_deg": 254.4164,
      "mean_motion_rev_day": 15.35504867
    },
    {
      "epoch": "2026-03-30T01:56:54.555936Z",
      "apogee_km": 465.44342643897926,
      "perigee_km": 453.0031229136157,
      "latitude_deg": -1.6117941873279336e-05,
      "longitude_deg": -95.71307584279022,
      "height_km": 462.28896327126887,
      "semi_major_axis_km": 6837.360274676297,
      "eccentricity": 0.00090973,
      "inclination_deg": 51.8793,
      "raan_deg": 120.9923,
      "arg_perigee_deg": 111.8759,
      "mean_anomaly_deg": 248.3195,
      "mean_motion_rev_day": 15.35571579
    },
    {
      "epoch": "2026-03-30T08:11:46.686048Z",
      "apogee_km": 465.23266283669,
      "perigee_km": 453.19509637209285,
      "latitude_deg": 1.8543357570133507e-06,
      "longitude_deg": 169.05934108216587,
      "height_km": 462.1120837491765,
      "semi_major_axis_km": 6837.350879604391,
      "eccentricity": 0.00088028,
      "inclination_deg": 51.8816,
      "raan_deg": 119.7385,
      "arg_perigee_deg": 110.9228,
      "mean_anomaly_deg": 249.2701,
      "mean_motion_rev_day": 15.35574744
    },
    {
      "epoch": "2026-03-30T19:07:47.479584Z",
      "apogee_km": 465.10960240940676,
      "perigee_km": 453.1995874343793,
      "latitude_deg": -3.500016237972598e-05,
      "longitude_deg": 2.410381353041069,
      "height_km": 462.2030581386627,
      "semi_major_axis_km": 6837.291594921892,
      "eccentricity": 0.00087096,
      "inclination_deg": 51.88,
      "raan_deg": 117.5419,
      "arg_perigee_deg": 112.7134,
      "mean_anomaly_deg": 247.4773,
      "mean_motion_rev_day": 15.35594716
    },
    {
      "epoch": "2026-03-31T10:44:56.411232Z",
      "apogee_km": 464.8259619082437,
      "perigee_km": 453.3819247621086,
      "latitude_deg": 2.0349544411086386e-05,
      "longitude_deg": 124.34435460406496,
      "height_km": 462.38803944252993,
      "semi_major_axis_km": 6837.240943335176,
      "eccentricity": 0.00083689,
      "inclination_deg": 51.8809,
      "raan_deg": 114.4045,
      "arg_perigee_deg": 116.2828,
      "mean_anomaly_deg": 243.9019,
      "mean_motion_rev_day": 15.3561178
    },
    {
      "epoch": "2026-04-01T17:59:12.278688Z",
      "apogee_km": 464.92378840110814,
      "perigee_km": 453.0039867137393,
      "latitude_deg": -7.816584990630645e-06,
      "longitude_deg": 8.21903148955106,
      "height_km": 462.6095256099,
      "semi_major_axis_km": 6837.100887557423,
      "eccentricity": 0.0008717,
      "inclination_deg": 51.8803,
      "raan_deg": 108.1282,
      "arg_perigee_deg": 119.0677,
      "mean_anomaly_deg": 241.1183,
      "mean_motion_rev_day": 15.35658965
    },
    {
      "epoch": "2026-04-02T17:24:53.447904Z",
      "apogee_km": 465.0858291612285,
      "perigee_km": 452.96203865000734,
      "latitude_deg": 2.374161442342959e-05,
      "longitude_deg": 11.129260547406457,
      "height_km": 463.15305170312485,
      "semi_major_axis_km": 6837.160933905618,
      "eccentricity": 0.00088661,
      "inclination_deg": 51.8796,
      "raan_deg": 103.4221,
      "arg_perigee_deg": 123.8727,
      "mean_anomaly_deg": 236.3104,
      "mean_motion_rev_day": 15.35638735
    },
    {
      "epoch": "2026-04-03T07:28:18.227712Z",
      "apogee_km": 464.8122423919922,
      "perigee_km": 453.10713286277496,
      "latitude_deg": 7.298792537661016e-05,
      "longitude_deg": 156.8722542603041,
      "height_km": 463.0728193590548,
      "semi_major_axis_km": 6837.096687627383,
      "eccentricity": 0.000856,
      "inclination_deg": 51.8799,
      "raan_deg": 100.5956,
      "arg_perigee_deg": 125.0589,
      "mean_anomaly_deg": 235.1202,
      "mean_motion_rev_day": 15.3566038
    },
    {
      "epoch": "2026-04-04T10:01:22.552032Z",
      "apogee_km": 464.59353721980006,
      "perigee_km": 453.0150404083688,
      "latitude_deg": 4.298169371418976e-05,
      "longitude_deg": 112.17979331021544,
      "height_km": 463.2355113324865,
      "semi_major_axis_km": 6836.941288814084,
      "eccentricity": 0.00084676,
      "inclination_deg": 51.8799,
      "raan_deg": 95.2616,
      "arg_perigee_deg": 129.455,
      "mean_anomaly_deg": 230.7187,
      "mean_motion_rev_day": 15.35712737
    },
    {
      "epoch": "2026-04-05T09:26:58.881120Z",
      "apogee_km": 464.536989738428,
      "perigee_km": 452.8479256779956,
      "latitude_deg": -1.0797291691728482e-05,
      "longitude_deg": 115.10867611977402,
      "height_km": 463.49912425647744,
      "semi_major_axis_km": 6836.8294577082115,
      "eccentricity": 0.00085486,
      "inclination_deg": 51.8821,
      "raan_deg": 90.554,
      "arg_perigee_deg": 133.9097,
      "mean_anomaly_deg": 226.2596,
      "mean_motion_rev_day": 15.35750417
    },
    {
      "epoch": "2026-04-06T05:45:08.619840Z",
      "apogee_km": 464.6576094440261,
      "perigee_km": 452.4833477027805,
      "latitude_deg": 6.475357391780261e-05,
      "longitude_deg": 165.65235291613834,
      "height_km": 463.9986319928279,
      "semi_major_axis_km": 6836.707478573403,
      "eccentricity": 0.00089036,
      "inclination_deg": 51.8808,
      "raan_deg": 86.472,
      "arg_perigee_deg": 140.1622,
      "mean_anomaly_deg": 220.002,
      "mean_motion_rev_day": 15.35791518
    },
    {
      "epoch": "2026-04-07T05:10:41.360736Z",
      "apogee_km": 464.3270070323051,
      "perigee_km": 452.6429466090385,
      "latitude_deg": -3.146290710698691e-05,
      "longitude_deg": 168.59879308793265,
      "height_km": 463.6566267207452,
      "semi_major_axis_km": 6836.621976820671,
      "eccentricity": 0.00085452,
      "inclination_deg": 51.8831,
      "raan_deg": 81.767,
      "arg_perigee_deg": 139.1201,
      "mean_anomaly_deg": 221.0427,
      "mean_motion_rev_day": 15.35820329
    },
    {
      "epoch": "2026-04-08T15:32:05.971776Z",
      "apogee_km": 464.2824525217802,
      "perigee_km": 452.44450502274776,
      "latitude_deg": 7.432074347378836e-05,
      "longitude_deg": 4.929640192033698,
      "height_km": 463.85322711094096,
      "semi_major_axis_km": 6836.500478772264,
      "eccentricity": 0.00086579,
      "inclination_deg": 51.8829,
      "raan_deg": 74.8613,
      "arg_perigee_deg": 143.1182,
      "mean_anomaly_deg": 217.0402,
      "mean_motion_rev_day": 15.35861271
    },
    {
      "epoch": "2026-04-09T21:12:21.737088Z",
      "apogee_km": 464.1362174420783,
      "perigee_km": 452.4418270883916,
      "latitude_deg": -3.6462618976471265e-05,
      "longitude_deg": -87.31698526301734,
      "height_km": 464.0173311637895,
      "semi_major_axis_km": 6836.426022265235,
      "eccentricity": 0.0008553,
      "inclination_deg": 51.8812,
      "raan_deg": 68.899,
      "arg_perigee_deg": 148.2446,
      "mean_anomaly_deg": 211.9057,
      "mean_motion_rev_day": 15.35886362
    },
    {
      "epoch": "2026-04-10T05:00:50.666400Z",
      "apogee_km": 464.06413570728637,
      "perigee_km": 452.3671363470439,
      "latitude_deg": 5.3188135938311815e-05,
      "longitude_deg": 153.67108041276654,
      "height_km": 463.98615184592995,
      "semi_major_axis_km": 6836.352636027165,
      "eccentricity": 0.0008555,
      "inclination_deg": 51.8808,
      "raan_deg": 67.3282,
      "arg_perigee_deg": 149.0158,
      "mean_anomaly_deg": 211.1335,
      "mean_motion_rev_day": 15.35911093
    },
    {
      "epoch": "2026-04-11T13:48:26.897184Z",
      "apogee_km": 463.71667096298097,
      "perigee_km": 452.55167288499433,
      "latitude_deg": -2.7529560196295056e-05,
      "longitude_deg": 13.832776069955298,
      "height_km": 463.9342745460238,
      "semi_major_axis_km": 6836.271171923987,
      "eccentricity": 0.0008166,
      "inclination_deg": 51.8817,
      "raan_deg": 60.7377,
      "arg_perigee_deg": 154.5767,
      "mean_anomaly_deg": 205.5622,
      "mean_motion_rev_day": 15.35938547
    },
    {
      "epoch": "2026-04-13T06:24:28.163232Z",
      "apogee_km": 463.7480380902434,
      "perigee_km": 452.2832632028976,
      "latitude_deg": -5.299540364848084e-05,
      "longitude_deg": 114.99888279123557,
      "height_km": 464.24248045597676,
      "semi_major_axis_km": 6836.152650646571,
      "eccentricity": 0.00083854,
      "inclination_deg": 51.8819,
      "raan_deg": 52.5765,
      "arg_perigee_deg": 162.4986,
      "mean_anomaly_deg": 197.629,
      "mean_motion_rev_day": 15.35978491
    },
    {
      "epoch": "2026-04-14T13:38:17.680416Z",
      "apogee_km": 463.9352879078897,
      "perigee_km": 451.97486121423754,
      "latitude_deg": 1.1509980688423897e-05,
      "longitude_deg": -1.0197750213387622,
      "height_km": 464.4968643139744,
      "semi_major_axis_km": 6836.092074561063,
      "eccentricity": 0.0008748,
      "inclination_deg": 51.8802,
      "raan_deg": 46.2967,
      "arg_perigee_deg": 165.1982,
      "mean_anomaly_deg": 194.9262,
      "mean_motion_rev_day": 15.35998907
    },
    {
      "epoch": "2026-04-15T13:03:38.644128Z",
      "apogee_km": 463.73535385728246,
      "perigee_km": 452.0798977702698,
      "latitude_deg": 2.737704095171934e-05,
      "longitude_deg": 1.9730628188639039,
      "height_km": 464.38760113788607,
      "semi_major_axis_km": 6836.044625813776,
      "eccentricity": 0.0008525,
      "inclination_deg": 51.8821,
      "raan_deg": 41.5888,
      "arg_perigee_deg": 168.9087,
      "mean_anomaly_deg": 191.2089,
      "mean_motion_rev_day": 15.36014899
    }
  ]
}